CELESTIS-17 & SHERPA-FX1
1 47486U 21006CB  26068.64311433  .00007207  00000+0  24301-3 0  9993
2 47486  97.2397 112.1052 0006630 178.1385 181.9882 15.30994801284065
STARLINK-32470          
1 62115U 24222B   26067.59511679  .00042702  00000+0  15506-2 0  9994
2 62115  43.0014 142.1928 0001081 239.1347 120.9398 15.27617045 72734
